{
    "links": {
        "self": "http://www.neowsapp.com/rest/v1/neo/54054775?api_key=iIulBulltgU6a56xZRHN4H3l9WmuAYTsLGpBGhQ2"
    },
    "id": "54054775",
    "neo_reference_id": "54054775",
    "name": "(2020 TL)",
    "designation": "2020 TL",
    "nasa_jpl_url": "http://ssd.jpl.nasa.gov/sbdb.cgi?sstr=54054775",
    "absolute_magnitude_h": 25.741,
    "estimated_diameter": {
        "kilometers": {
            "estimated_diameter_min": 0.0188953516,
            "estimated_diameter_max": 0.0422512905
        },
        "meters": {
            "estimated_diameter_min": 18.895351558,
            "estimated_diameter_max": 42.2512905425
        },
        "miles": {
            "estimated_diameter_min": 0.0117410235,
            "estimated_diameter_max": 0.0262537267
        },
        "feet": {
            "estimated_diameter_min": 61.9926252056,
            "estimated_diameter_max": 138.6197240633
        }
    },
    "is_potentially_hazardous_asteroid": false,
    "close_approach_data": [
        {
            "close_approach_date": "2020-10-05",
            "close_approach_date_full": "2020-Oct-05 11:24",
            "epoch_date_close_approach": 1601897040000,
            "relative_velocity": {
                "kilometers_per_second": "8.6418468552",
                "kilometers_per_hour": "31110.6486786495",
                "miles_per_hour": "19330.9472303531"
            },
            "miss_distance": {
                "astronomical": "0.0523619013",
                "lunar": "20.3687796057",
                "kilometers": "7833228.903630231",
                "miles": "4867342.7390339478"
            },
            "orbiting_body": "Earth"
        }
    ],
    "orbital_data": {
        "orbit_id": "5",
        "orbit_determination_date": "2020-10-18 08:05:58",
        "first_observation_date": "2020-10-04",
        "last_observation_date": "2020-10-18",
        "data_arc_in_days": 14,
        "observations_used": 34,
        "orbit_uncertainty": "8",
        "minimum_orbit_intersection": ".0484754",
        "jupiter_tisserand_invariant": "3.229",
        "epoch_osculation": "2459130.5",
        "eccentricity": ".572985698061575",
        "semi_major_axis": "2.457191264759358",
        "inclination": "9.223003394759294",
        "ascending_node_longitude": "9.624614794294061",
        "orbital_period": "1406.879401268895",
        "perihelion_distance": "1.049255812650413",
        "perihelion_argument": ".2503288733536668",
        "aphelion_distance": "3.865126716868303",
        "perihelion_time": "2459126.541892596836",
        "mean_anomaly": "1.012822182095974",
        "mean_motion": ".2558854722553391",
        "equinox": "J2000",
        "orbit_class": {
            "orbit_class_type": "AMO",
            "orbit_class_description": "Near-Earth asteroid orbits similar to that of 1221 Amor",
            "orbit_class_range": "1.017 AU < q (perihelion) < 1.3 AU"
        }
    },
    "is_sentry_object": false
}